CCSDS_OMM_VERS = 2.0
CREATION_DATE  = 
ORIGINATOR     = 

OBJECT_NAME    = ALOS-2
OBJECT_ID      = 2014-029A
CENTER_NAME    = EARTH
REF_FRAME      = TEME
TIME_SYSTEM    = UTC
MEAN_ELEMENT_THEORY = SGP/SGP4

EPOCH          = 2026-03-21T23:02:31.813152
MEAN_MOTION    = 14.79416759
ECCENTRICITY   = .0001813
INCLINATION    = 97.9195
RA_OF_ASC_NODE = 179.3789
ARG_OF_PERICENTER = 109.6080
MEAN_ANOMALY   = 250.5328

EPHEMERIS_TYPE = 0
CLASSIFICATION_TYPE = U
NORAD_CAT_ID   = 39766
ELEMENT_SET_NO = 999
REV_AT_EPOCH   = 63868
BSTAR          = .22077694E-3
MEAN_MOTION_DOT = .1596E-4
MEAN_MOTION_DDOT = 0

CCSDS_OMM_VERS = 2.0
CREATION_DATE  = 
ORIGINATOR     = 

OBJECT_NAME    = YAOGAN-29
OBJECT_ID      = 2015-069A
CENTER_NAME    = EARTH
REF_FRAME      = TEME
TIME_SYSTEM    = UTC
MEAN_ELEMENT_THEORY = SGP/SGP4

EPOCH          = 2026-03-21T22:32:44.917728
MEAN_MOTION    = 14.83005384
ECCENTRICITY   = .00010567
INCLINATION    = 98.0121
RA_OF_ASC_NODE = 109.4003
ARG_OF_PERICENTER = 15.4380
MEAN_ANOMALY   = 344.6866

EPHEMERIS_TYPE = 0
CLASSIFICATION_TYPE = U
NORAD_CAT_ID   = 41038
ELEMENT_SET_NO = 999
REV_AT_EPOCH   = 55769
BSTAR          = -.30847954E-4
MEAN_MOTION_DOT = -.305E-5
MEAN_MOTION_DDOT = 0

CCSDS_OMM_VERS = 2.0
CREATION_DATE  = 
ORIGINATOR     = 

OBJECT_NAME    = ASTRO-H (HITOMI)
OBJECT_ID      = 2016-012A
CENTER_NAME    = EARTH
REF_FRAME      = TEME
TIME_SYSTEM    = UTC
MEAN_ELEMENT_THEORY = SGP/SGP4

EPOCH          = 2026-03-21T22:17:35.342592
MEAN_MOTION    = 15.10079489
ECCENTRICITY   = .0009604
INCLINATION    = 30.9991
RA_OF_ASC_NODE = 277.5614
ARG_OF_PERICENTER = 94.3396
MEAN_ANOMALY   = 265.8340

EPHEMERIS_TYPE = 0
CLASSIFICATION_TYPE = U
NORAD_CAT_ID   = 41337
ELEMENT_SET_NO = 999
REV_AT_EPOCH   = 55408
BSTAR          = .18889764E-3
MEAN_MOTION_DOT = .3249E-4
MEAN_MOTION_DDOT = 0

CCSDS_OMM_VERS = 2.0
CREATION_DATE  = 
ORIGINATOR     = 

OBJECT_NAME    = HXMT (HUIYAN)
OBJECT_ID      = 2017-034A
CENTER_NAME    = EARTH
REF_FRAME      = TEME
TIME_SYSTEM    = UTC
MEAN_ELEMENT_THEORY = SGP/SGP4

EPOCH          = 2026-03-21T22:54:00.679392
MEAN_MOTION    = 15.17618309
ECCENTRICITY   = .00327803
INCLINATION    = 43.0145
RA_OF_ASC_NODE = 308.4809
ARG_OF_PERICENTER = 310.6502
MEAN_ANOMALY   = 49.1498

EPHEMERIS_TYPE = 0
CLASSIFICATION_TYPE = U
NORAD_CAT_ID   = 42758
ELEMENT_SET_NO = 999
REV_AT_EPOCH   = 48440
BSTAR          = .34671401E-3
MEAN_MOTION_DOT = .6962E-4
MEAN_MOTION_DDOT = 0

CCSDS_OMM_VERS = 2.0
CREATION_DATE  = 
ORIGINATOR     = 

OBJECT_NAME    = SAOCOM 1A
OBJECT_ID      = 2018-076A
CENTER_NAME    = EARTH
REF_FRAME      = TEME
TIME_SYSTEM    = UTC
MEAN_ELEMENT_THEORY = SGP/SGP4

EPOCH          = 2026-03-21T21:53:53.077632
MEAN_MOTION    = 14.82152349
ECCENTRICITY   = .00014744
INCLINATION    = 97.8892
RA_OF_ASC_NODE = 268.9127
ARG_OF_PERICENTER = 84.7958
MEAN_ANOMALY   = 275.3423

EPHEMERIS_TYPE = 0
CLASSIFICATION_TYPE = U
NORAD_CAT_ID   = 43641
ELEMENT_SET_NO = 999
REV_AT_EPOCH   = 40317
BSTAR          = .27096236E-4
MEAN_MOTION_DOT = .163E-5
MEAN_MOTION_DDOT = 0

CCSDS_OMM_VERS = 2.0
CREATION_DATE  = 
ORIGINATOR     = 

OBJECT_NAME    = H-2A R/B
OBJECT_ID      = 2018-084L
CENTER_NAME    = EARTH
REF_FRAME      = TEME
TIME_SYSTEM    = UTC
MEAN_ELEMENT_THEORY = SGP/SGP4

EPOCH          = 2026-03-21T13:06:22.899168
MEAN_MOTION    = 15.41824559
ECCENTRICITY   = .00244026
INCLINATION    = 98.8711
RA_OF_ASC_NODE = 300.4726
ARG_OF_PERICENTER = 344.4646
MEAN_ANOMALY   = 15.5844

EPHEMERIS_TYPE = 0
CLASSIFICATION_TYPE = U
NORAD_CAT_ID   = 43682
ELEMENT_SET_NO = 999
REV_AT_EPOCH   = 40760
BSTAR          = .64353301E-3
MEAN_MOTION_DOT = .27516E-3
MEAN_MOTION_DDOT = 0

CCSDS_OMM_VERS = 2.0
CREATION_DATE  = 
ORIGINATOR     = 

OBJECT_NAME    = SAOCOM 1B
OBJECT_ID      = 2020-059A
CENTER_NAME    = EARTH
REF_FRAME      = TEME
TIME_SYSTEM    = UTC
MEAN_ELEMENT_THEORY = SGP/SGP4

EPOCH          = 2026-03-21T22:38:50.298144
MEAN_MOTION    = 14.82149767
ECCENTRICITY   = .00015062
INCLINATION    = 97.8891
RA_OF_ASC_NODE = 268.0412
ARG_OF_PERICENTER = 88.1384
MEAN_ANOMALY   = 272.0002

EPHEMERIS_TYPE = 0
CLASSIFICATION_TYPE = U
NORAD_CAT_ID   = 46265
ELEMENT_SET_NO = 999
REV_AT_EPOCH   = 30056
BSTAR          = .12781835E-3
MEAN_MOTION_DOT = .965E-5
MEAN_MOTION_DDOT = 0

CCSDS_OMM_VERS = 2.0
CREATION_DATE  = 
ORIGINATOR     = 

OBJECT_NAME    = CSS (TIANHE)
OBJECT_ID      = 2021-035A
CENTER_NAME    = EARTH
REF_FRAME      = TEME
TIME_SYSTEM    = UTC
MEAN_ELEMENT_THEORY = SGP/SGP4

EPOCH          = 2026-03-21T20:54:55.141056
MEAN_MOTION    = 15.61285999
ECCENTRICITY   = .00053122
INCLINATION    = 41.4660
RA_OF_ASC_NODE = 134.0045
ARG_OF_PERICENTER = 350.4571
MEAN_ANOMALY   = 9.6167

EPHEMERIS_TYPE = 0
CLASSIFICATION_TYPE = U
NORAD_CAT_ID   = 48274
ELEMENT_SET_NO = 999
REV_AT_EPOCH   = 27951
BSTAR          = .32507415E-3
MEAN_MOTION_DOT = .28184E-3
MEAN_MOTION_DDOT = 0

CCSDS_OMM_VERS = 2.0
CREATION_DATE  = 
ORIGINATOR     = 

OBJECT_NAME    = COSMOS 2550
OBJECT_ID      = 2021-056A
CENTER_NAME    = EARTH
REF_FRAME      = TEME
TIME_SYSTEM    = UTC
MEAN_ELEMENT_THEORY = SGP/SGP4

EPOCH          = 2026-03-20T16:01:39.963360
MEAN_MOTION    = 15.33831857
ECCENTRICITY   = .00081995
INCLINATION    = 67.1449
RA_OF_ASC_NODE = 7.6743
ARG_OF_PERICENTER = 268.9235
MEAN_ANOMALY   = 91.0980

EPHEMERIS_TYPE = 0
CLASSIFICATION_TYPE = U
NORAD_CAT_ID   = 48865
ELEMENT_SET_NO = 999
REV_AT_EPOCH   = 26514
BSTAR          = .125924E-6
MEAN_MOTION_DOT = -.188E-5
MEAN_MOTION_DDOT = 0

CCSDS_OMM_VERS = 2.0
CREATION_DATE  = 
ORIGINATOR     = 

OBJECT_NAME    = CZ-2C R/B
OBJECT_ID      = 2022-058K
CENTER_NAME    = EARTH
REF_FRAME      = TEME
TIME_SYSTEM    = UTC
MEAN_ELEMENT_THEORY = SGP/SGP4

EPOCH          = 2026-03-21T18:55:41.979648
MEAN_MOTION    = 15.55073970
ECCENTRICITY   = .0041756
INCLINATION    = 50.1874
RA_OF_ASC_NODE = 256.0095
ARG_OF_PERICENTER = 252.5435
MEAN_ANOMALY   = 107.0969

EPHEMERIS_TYPE = 0
CLASSIFICATION_TYPE = U
NORAD_CAT_ID   = 52794
ELEMENT_SET_NO = 999
REV_AT_EPOCH   = 21201
BSTAR          = .62500431E-3
MEAN_MOTION_DOT = .44319E-3
MEAN_MOTION_DDOT = 0

CCSDS_OMM_VERS = 2.0
CREATION_DATE  = 
ORIGINATOR     = 

OBJECT_NAME    = CZ-2C R/B
OBJECT_ID      = 2022-132E
CENTER_NAME    = EARTH
REF_FRAME      = TEME
TIME_SYSTEM    = UTC
MEAN_ELEMENT_THEORY = SGP/SGP4

EPOCH          = 2026-03-21T12:58:30.684288
MEAN_MOTION    = 15.62906527
ECCENTRICITY   = .001922
INCLINATION    = 97.2959
RA_OF_ASC_NODE = 84.2267
ARG_OF_PERICENTER = 53.5063
MEAN_ANOMALY   = 306.7963

EPHEMERIS_TYPE = 0
CLASSIFICATION_TYPE = U
NORAD_CAT_ID   = 54039
ELEMENT_SET_NO = 999
REV_AT_EPOCH   = 19222
BSTAR          = .68094667E-3
MEAN_MOTION_DOT = .62311E-3
MEAN_MOTION_DDOT = 0

CCSDS_OMM_VERS = 2.0
CREATION_DATE  = 
ORIGINATOR     = 

OBJECT_NAME    = GSLV R/B
OBJECT_ID      = 2022-138AN
CENTER_NAME    = EARTH
REF_FRAME      = TEME
TIME_SYSTEM    = UTC
MEAN_ELEMENT_THEORY = SGP/SGP4

EPOCH          = 2026-03-21T22:55:16.129056
MEAN_MOTION    = 14.96852016
ECCENTRICITY   = .0024026
INCLINATION    = 87.3867
RA_OF_ASC_NODE = 162.2567
ARG_OF_PERICENTER = 105.8666
MEAN_ANOMALY   = 254.5216

EPHEMERIS_TYPE = 0
CLASSIFICATION_TYPE = U
NORAD_CAT_ID   = 54149
ELEMENT_SET_NO = 999
REV_AT_EPOCH   = 18576
BSTAR          = .32164774E-3
MEAN_MOTION_DOT = .3735E-4
MEAN_MOTION_DDOT = 0

